{"spkid": "50483536", "covariance": {"epoch": "2458241.5", "labels": ["e", "q", "tp", "node", "peri", "i"], "data": [["1.038856201070996E-15", "-2.292047674925066E-15", "1.582824787578692E-13", "4.102311039945346E-14", "-7.912919696192863E-14", "-1.720684002899738E-15"], ["-2.292047674925066E-15", "5.059926428608571E-15", "-3.349630610571458E-13", "-9.128704102316521E-14", "1.725488908720159E-13", "4.506905246781622E-15"], ["1.582824787578692E-13", "-3.349630610571458E-13", "3.947790225896606E-10", "2.790963023703651E-11", "2.824783388228528E-11", "1.519525462064003E-12"], ["4.102311039945346E-14", "-9.128704102316521E-14", "2.790963023703651E-11", "1.346816237524623E-9", "-1.332249387186811E-9", "1.781037468261023E-11"], ["-7.912919696192863E-14", "1.725488908720159E-13", "2.824783388228528E-11", "-1.332249387186811E-9", "1.359113795563708E-9", "-1.918733776717871E-11"], ["-1.720684002899738E-15", "4.506905246781622E-15", "1.519525462064003E-12", "1.781037468261023E-11", "-1.918733776717871E-11", "7.503134598523299E-11"]], "elements": [{"name": "e", "sigma": 3.22312922649868e-08, "units": null, "title": "eccentricity", "value": ".7677555946804481", "label": "e"}, {"label": "q", "sigma": 7.11331598384928e-08, "name": "q", "value": ".5062058094505817", "title": "perihelion distance", "units": "au"}, {"sigma": 1.98690468465314e-05, "name": "tp", "units": "TDB", "title": "time of perihelion passage", "value": "2458654.219876125958", "label": "tp"}, {"title": "longitude of the ascending node", "value": "265.0420812864216", "units": "deg", "name": "om", "sigma": 3.66989950478841e-05, "label": "node"}, {"label": "peri", "sigma": 3.68661605752987e-05, "name": "w", "title": "argument of perihelion", "value": "81.88156854721996", "units": "deg"}, {"units": "deg", "title": "inclination", "value": "5.739342473586209", "sigma": 8.66206361008928e-06, "name": "i", "label": "i"}]}, "elements": [{"label": "e", "name": "e", "sigma": "3.2274E-8", "units": null, "value": ".7675601592812179", "title": "eccentricity"}, {"label": "a", "title": "semi-major axis", "value": "2.181029326756577", "units": "au", "name": "a", "sigma": "8.0124E-9"}, {"units": "au", "title": "perihelion distance", "value": ".5069581093142914", "sigma": "7.1288E-8", "name": "q", "label": "q"}, {"name": "i", "sigma": "8.6586E-6", "title": "inclination; angle with respect to x-y ecliptic plane", "value": "5.737203407666406", "units": "deg", "label": "i"}, {"label": "node", "sigma": "3.6702E-5", "name": "om", "title": "longitude of the ascending node", "value": "264.8842745089001", "units": "deg"}, {"units": "deg", "value": "82.03532894810081", "title": "argument of perihelion", "name": "w", "sigma": "3.687E-5", "label": "peri"}, {"name": "ma", "sigma": "8.256E-6", "units": "deg", "title": "mean anomaly", "value": "59.5945828746342", "label": "M"}, {"label": "tp", "name": "tp", "sigma": "2.6268E-5", "title": "time of perihelion passage", "value": "2461005.742151451956", "units": "TDB"}, {"name": "per", "sigma": "6.4831E-6", "value": "1176.496622600553", "title": "sidereal orbital period", "units": "d", "label": "period"}, {"value": ".3059932286114416", "title": "mean motion", "units": "deg/d", "name": "n", "sigma": "1.6862E-9", "label": "n"}, {"label": "Q", "units": "au", "title": "aphelion distance", "value": "3.855100544198864", "name": "ad", "sigma": "1.4162E-8"}], "epoch": "2461200.5"}